[{"OBJECT_NAME":"KOREASAT 6","OBJECT_ID":"2010-070B","EPOCH":"2026-03-04T16:28:38.707104","MEAN_MOTION":1.00269442,"ECCENTRICITY":0.0002423,"INCLINATION":0.0346,"RA_OF_ASC_NODE":262.5661,"ARG_OF_PERICENTER":71.3665,"MEAN_ANOMALY":235.5166,"EPHEMERIS_TYPE":0,"CLASSIFICATION_TYPE":"U","NORAD_CAT_ID":37265,"ELEMENT_SET_NO":999,"REV_AT_EPOCH":5572,"BSTAR":0,"MEAN_MOTION_DOT":-1.23e-6,"MEAN_MOTION_DDOT":0},{"OBJECT_NAME":"BEIDOU-2 IGSO-3","OBJECT_ID":"2011-013A","EPOCH":"2026-02-27T21:48:44.352288","MEAN_MOTION":1.00294022,"ECCENTRICITY":0.00350296,"INCLINATION":62.2642,"RA_OF_ASC_NODE":41.1818,"ARG_OF_PERICENTER":190.8154,"MEAN_ANOMALY":358.7681,"EPHEMERIS_TYPE":0,"CLASSIFICATION_TYPE":"U","NORAD_CAT_ID":37384,"ELEMENT_SET_NO":999,"REV_AT_EPOCH":5456,"BSTAR":0,"MEAN_MOTION_DOT":-1.54e-6,"MEAN_MOTION_DDOT":0},{"OBJECT_NAME":"INTELSAT 28 (IS-28)","OBJECT_ID":"2011-016A","EPOCH":"2026-03-04T10:52:38.525952","MEAN_MOTION":1.00272423,"ECCENTRICITY":0.0004655,"INCLINATION":1.5355,"RA_OF_ASC_NODE":83.9838,"ARG_OF_PERICENTER":258.1783,"MEAN_ANOMALY":311.4864,"EPHEMERIS_TYPE":0,"CLASSIFICATION_TYPE":"U","NORAD_CAT_ID":37392,"ELEMENT_SET_NO":999,"REV_AT_EPOCH":5223,"BSTAR":0,"MEAN_MOTION_DOT":-2.36e-6,"MEAN_MOTION_DDOT":0},{"OBJECT_NAME":"YAHSAT 1A","OBJECT_ID":"2011-016B","EPOCH":"2026-03-04T07:12:38.426400","MEAN_MOTION":1.00269069,"ECCENTRICITY":0.00033514,"INCLINATION":0.0104,"RA_OF_ASC_NODE":131.2011,"ARG_OF_PERICENTER":218.7759,"MEAN_ANOMALY":332.7073,"EPHEMERIS_TYPE":0,"CLASSIFICATION_TYPE":"U","NORAD_CAT_ID":37393,"ELEMENT_SET_NO":999,"REV_AT_EPOCH":4135,"BSTAR":0,"MEAN_MOTION_DOT":9.0e-7,"MEAN_MOTION_DDOT":0},{"OBJECT_NAME":"SBIRS GEO-1 (USA 230)","OBJECT_ID":"2011-019A","EPOCH":"2026-03-04T02:18:09.856224","MEAN_MOTION":1.00272141,"ECCENTRICITY":0.00022939,"INCLINATION":4.305,"RA_OF_ASC_NODE":53.0927,"ARG_OF_PERICENTER":290.1321,"MEAN_ANOMALY":264.9657,"EPHEMERIS_TYPE":0,"CLASSIFICATION_TYPE":"U","NORAD_CAT_ID":37481,"ELEMENT_SET_NO":999,"REV_AT_EPOCH":5434,"BSTAR":0,"MEAN_MOTION_DOT":9.0e-7,"MEAN_MOTION_DDOT":0},{"OBJECT_NAME":"TELSTAR 14R","OBJECT_ID":"2011-021A","EPOCH":"2026-03-04T01:45:27.989568","MEAN_MOTION":1.00272792,"ECCENTRICITY":0.00024274,"INCLINATION":0.0365,"RA_OF_ASC_NODE":269.7706,"ARG_OF_PERICENTER":79.4879,"MEAN_ANOMALY":135.9193,"EPHEMERIS_TYPE":0,"CLASSIFICATION_TYPE":"U","NORAD_CAT_ID":37602,"ELEMENT_SET_NO":999,"REV_AT_EPOCH":5478,"BSTAR":0,"MEAN_MOTION_DOT":-2.93e-6,"MEAN_MOTION_DDOT":0},{"OBJECT_NAME":"GSAT-8","OBJECT_ID":"2011-022A","EPOCH":"2026-03-04T04:34:38.601984","MEAN_MOTION":1.00272189,"ECCENTRICITY":0.00073721,"INCLINATION":1.8598,"RA_OF_ASC_NODE":83.1608,"ARG_OF_PERICENTER":214.9335,"MEAN_ANOMALY":347.5527,"EPHEMERIS_TYPE":0,"CLASSIFICATION_TYPE":"U","NORAD_CAT_ID":37605,"ELEMENT_SET_NO":999,"REV_AT_EPOCH":5216,"BSTAR":0,"MEAN_MOTION_DOT":7.3e-7,"MEAN_MOTION_DDOT":0},{"OBJECT_NAME":"ST-2","OBJECT_ID":"2011-022B","EPOCH":"2026-03-04T19:45:42.573024","MEAN_MOTION":1.00268278,"ECCENTRICITY":0.0001953,"INCLINATION":0.0221,"RA_OF_ASC_NODE":232.1831,"ARG_OF_PERICENTER":126.8805,"MEAN_ANOMALY":187.9112,"EPHEMERIS_TYPE":0,"CLASSIFICATION_TYPE":"U","NORAD_CAT_ID":37606,"ELEMENT_SET_NO":999,"REV_AT_EPOCH":5423,"BSTAR":0,"MEAN_MOTION_DOT":-2.2e-6,"MEAN_MOTION_DDOT":0},{"OBJECT_NAME":"ZHONGXING-10","OBJECT_ID":"2011-026A","EPOCH":"2026-03-04T16:29:41.189856","MEAN_MOTION":1.0026903,"ECCENTRICITY":0.0002702,"INCLINATION":0.7768,"RA_OF_ASC_NODE":85.5621,"ARG_OF_PERICENTER":261.2527,"MEAN_ANOMALY":148.5013,"EPHEMERIS_TYPE":0,"CLASSIFICATION_TYPE":"U","NORAD_CAT_ID":37677,"ELEMENT_SET_NO":999,"REV_AT_EPOCH":5395,"BSTAR":0,"MEAN_MOTION_DOT":-1.98e-6,"MEAN_MOTION_DDOT":0},{"OBJECT_NAME":"SES-3","OBJECT_ID":"2011-035A","EPOCH":"2026-03-04T08:33:38.625984","MEAN_MOTION":1.00272185,"ECCENTRICITY":0.00035757,"INCLINATION":1.0557,"RA_OF_ASC_NODE":84.3067,"ARG_OF_PERICENTER":265.2485,"MEAN_ANOMALY":197.9476,"EPHEMERIS_TYPE":0,"CLASSIFICATION_TYPE":"U","NORAD_CAT_ID":37748,"ELEMENT_SET_NO":999,"REV_AT_EPOCH":5354,"BSTAR":0,"MEAN_MOTION_DOT":-1.13e-6,"MEAN_MOTION_DDOT":0},{"OBJECT_NAME":"KAZSAT-2","OBJECT_ID":"2011-035B","EPOCH":"2026-03-04T12:20:31.543872","MEAN_MOTION":1.00272426,"ECCENTRICITY":5.455e-5,"INCLINATION":0.0172,"RA_OF_ASC_NODE":123.1438,"ARG_OF_PERICENTER":192.8375,"MEAN_ANOMALY":117.9108,"EPHEMERIS_TYPE":0,"CLASSIFICATION_TYPE":"U","NORAD_CAT_ID":37749,"ELEMENT_SET_NO":999,"REV_AT_EPOCH":5234,"BSTAR":0,"MEAN_MOTION_DOT":-2.09e-6,"MEAN_MOTION_DDOT":0},{"OBJECT_NAME":"BEIDOU-2 IGSO-4","OBJECT_ID":"2011-038A","EPOCH":"2026-03-04T15:39:53.348256","MEAN_MOTION":1.00265629,"ECCENTRICITY":0.0154496,"INCLINATION":54.5895,"RA_OF_ASC_NODE":166.6175,"ARG_OF_PERICENTER":230.9812,"MEAN_ANOMALY":94.2035,"EPHEMERIS_TYPE":0,"CLASSIFICATION_TYPE":"U","NORAD_CAT_ID":37763,"ELEMENT_SET_NO":999,"REV_AT_EPOCH":5359,"BSTAR":0,"MEAN_MOTION_DOT":-1.06e-6,"MEAN_MOTION_DDOT":0},{"OBJECT_NAME":"ASTRA 1N","OBJECT_ID":"2011-041A","EPOCH":"2026-03-04T17:49:16.325184","MEAN_MOTION":1.00274172,"ECCENTRICITY":0.000413,"INCLINATION":0.0693,"RA_OF_ASC_NODE":21.2325,"ARG_OF_PERICENTER":357.7444,"MEAN_ANOMALY":70.0217,"EPHEMERIS_TYPE":0,"CLASSIFICATION_TYPE":"U","NORAD_CAT_ID":37775,"ELEMENT_SET_NO":999,"REV_AT_EPOCH":4348,"BSTAR":0,"MEAN_MOTION_DOT":1.1e-6,"MEAN_MOTION_DDOT":0},{"OBJECT_NAME":"BSAT-3C (JCSAT-110R)","OBJECT_ID":"2011-041B","EPOCH":"2026-03-04T20:18:28.268928","MEAN_MOTION":1.002708,"ECCENTRICITY":7.74e-5,"INCLINATION":0.032,"RA_OF_ASC_NODE":67.3687,"ARG_OF_PERICENTER":13.1615,"MEAN_ANOMALY":136.6326,"EPHEMERIS_TYPE":0,"CLASSIFICATION_TYPE":"U","NORAD_CAT_ID":37776,"ELEMENT_SET_NO":999,"REV_AT_EPOCH":4942,"BSTAR":0,"MEAN_MOTION_DOT":-3.6e-6,"MEAN_MOTION_DDOT":0},{"OBJECT_NAME":"PAKSAT-1R","OBJECT_ID":"2011-042A","EPOCH":"2026-03-04T05:25:38.576352","MEAN_MOTION":1.00278354,"ECCENTRICITY":0.00025442,"INCLINATION":0.4169,"RA_OF_ASC_NODE":85.7725,"ARG_OF_PERICENTER":304.7333,"MEAN_ANOMALY":250.9074,"EPHEMERIS_TYPE":0,"CLASSIFICATION_TYPE":"U","NORAD_CAT_ID":37779,"ELEMENT_SET_NO":999,"REV_AT_EPOCH":5342,"BSTAR":0,"MEAN_MOTION_DOT":1.42e-6,"MEAN_MOTION_DDOT":0},{"OBJECT_NAME":"SES-2","OBJECT_ID":"2011-049A","EPOCH":"2026-03-04T07:20:02.674464","MEAN_MOTION":1.00272089,"ECCENTRICITY":0.00029282,"INCLINATION":0.019,"RA_OF_ASC_NODE":76.8239,"ARG_OF_PERICENTER":265.595,"MEAN_ANOMALY":202.6308,"EPHEMERIS_TYPE":0,"CLASSIFICATION_TYPE":"U","NORAD_CAT_ID":37809,"ELEMENT_SET_NO":999,"REV_AT_EPOCH":5291,"BSTAR":0,"MEAN_MOTION_DOT":-2.08e-6,"MEAN_MOTION_DDOT":0},{"OBJECT_NAME":"ARABSAT-5C","OBJECT_ID":"2011-049B","EPOCH":"2026-03-04T17:50:15.048672","MEAN_MOTION":1.00274597,"ECCENTRICITY":0.000252,"INCLINATION":0.0571,"RA_OF_ASC_NODE":352.084,"ARG_OF_PERICENTER":355.0893,"MEAN_ANOMALY":102.9006,"EPHEMERIS_TYPE":0,"CLASSIFICATION_TYPE":"U","NORAD_CAT_ID":37810,"ELEMENT_SET_NO":999,"REV_AT_EPOCH":5299,"BSTAR":0,"MEAN_MOTION_DOT":1.13e-6,"MEAN_MOTION_DDOT":0}]
