KOREASAT 6              
1 37265U 10070B   26063.68655911 -.00000123  00000+0  00000+0 0  9994
2 37265   0.0346 262.5661 0002423  71.3665 235.5166  1.00269442 55720
BEIDOU-2 IGSO-3         
1 37384U 11013A   26058.90884667 -.00000154  00000+0  00000+0 0  9999
2 37384  62.2642  41.1818 0035029 190.8154 358.7681  1.00294022 54567
INTELSAT 28 (IS-28)     
1 37392U 11016A   26063.45322368 -.00000236  00000+0  00000+0 0  9993
2 37392   1.5355  83.9838 0004655 258.1783 311.4864  1.00272423 52238
YAHSAT 1A               
1 37393U 11016B   26063.30044475  .00000090  00000+0  00000+0 0  9995
2 37393   0.0104 131.2011 0003351 218.7759 332.7073  1.00269069 41353
SBIRS GEO-1 (USA 230)   
1 37481U 11019A   26063.09594741  .00000090  00000+0  00000+0 0  9998
2 37481   4.3050  53.0927 0002293 290.1321 264.9657  1.00272141 54340
TELSTAR 14R             
1 37602U 11021A   26063.07324062 -.00000293  00000+0  00000+0 0  9997
2 37602   0.0365 269.7706 0002427  79.4879 135.9193  1.00272792 54785
GSAT-8                  
1 37605U 11022A   26063.19072456  .00000073  00000+0  00000+0 0  9996
2 37605   1.8598  83.1608 0007372 214.9335 347.5527  1.00272189 52163
ST-2                    
1 37606U 11022B   26063.82340941 -.00000220  00000+0  00000+0 0  9999
2 37606   0.0221 232.1831 0001953 126.8805 187.9112  1.00268278 54234
ZHONGXING-10            
1 37677U 11026A   26063.68728229 -.00000198  00000+0  00000+0 0  9998
2 37677   0.7768  85.5621 0002702 261.2527 148.5013  1.00269030 53958
SES-3                   
1 37748U 11035A   26063.35669706 -.00000113  00000+0  00000+0 0  9992
2 37748   1.0557  84.3067 0003575 265.2485 197.9476  1.00272185 53545
KAZSAT-2                
1 37749U 11035B   26063.51425398 -.00000209  00000+0  00000+0 0  9994
2 37749   0.0172 123.1438 0000545 192.8375 117.9108  1.00272426 52348
BEIDOU-2 IGSO-4         
1 37763U 11038A   26063.65270079 -.00000106  00000+0  00000+0 0  9998
2 37763  54.5895 166.6175 0154496 230.9812  94.2035  1.00265629 53596
ASTRA 1N                
1 37775U 11041A   26063.74255006  .00000110  00000+0  00000+0 0  9992
2 37775   0.0693  21.2325 0004130 357.7444  70.0217  1.00274172 43486
BSAT-3C (JCSAT-110R)    
1 37776U 11041B   26063.84616052 -.00000360  00000+0  00000+0 0  9994
2 37776   0.0320  67.3687 0000774  13.1615 136.6326  1.00270800 49423
PAKSAT-1R               
1 37779U 11042A   26063.22614093  .00000142  00000+0  00000+0 0  9990
2 37779   0.4169  85.7725 0002544 304.7333 250.9074  1.00278354 53428
SES-2                   
1 37809U 11049A   26063.30558651 -.00000208  00000+0  00000+0 0  9991
2 37809   0.0190  76.8239 0002928 265.5950 202.6308  1.00272089 52914
ARABSAT-5C              
1 37810U 11049B   26063.74322973  .00000113  00000+0  00000+0 0  9991
2 37810   0.0571 352.0840 0002520 355.0893 102.9006  1.00274597 52996
